{
"type": "FeatureCollection",
"name": "arlington_buildings",
"crs": { "type": "name", "properties": { "name": "urn:ogc:def:crs:OGC:1.3:CRS84" } },
"features": [
{ "type": "Feature", "properties": { "id": "way/133295175", "@id": "way/133295175", "addr:housenumber": "1220", "addr:place": null, "addr:postcode": "RG7 4GA", "addr:street": "Parkview", "building": "commercial", "building:levels": "3" }, "geometry": { "type": "Polygon", "coordinates": [ [ [ -1.0659082, 51.4367614 ], [ -1.0657121, 51.4369883 ], [ -1.0659459, 51.4374667 ], [ -1.0662401, 51.4374173 ], [ -1.0659984, 51.4369397 ], [ -1.0659082, 51.4367614 ] ] ] } },
{ "type": "Feature", "properties": { "id": "way/133295176", "@id": "way/133295176", "addr:housenumber": "1650", "addr:place": null, "addr:postcode": null, "addr:street": "Parkview", "building": "commercial", "building:levels": "3" }, "geometry": { "type": "Polygon", "coordinates": [ [ [ -1.0664365, 51.4353258 ], [ -1.0661169, 51.4353615 ], [ -1.0662693, 51.4358911 ], [ -1.0665888, 51.4358554 ], [ -1.0664365, 51.4353258 ] ] ] } },
{ "type": "Feature", "properties": { "id": "way/133295178", "@id": "way/133295178", "addr:housenumber": "1100", "addr:place": "Arlington Business Park", "addr:postcode": "RG7 4SD", "addr:street": "Parkview", "building": "commercial", "building:levels": "3" }, "geometry": { "type": "Polygon", "coordinates": [ [ [ -1.0671854, 51.4366252 ], [ -1.0668735, 51.4366737 ], [ -1.066897, 51.4367324 ], [ -1.0671042, 51.4372522 ], [ -1.0671988, 51.4372376 ], [ -1.0672007, 51.4372424 ], [ -1.0672026, 51.4372473 ], [ -1.0672574, 51.4372388 ], [ -1.0672553, 51.4372335 ], [ -1.0672531, 51.4372281 ], [ -1.0674163, 51.4372028 ], [ -1.0672588, 51.4368081 ], [ -1.0672733, 51.4368059 ], [ -1.06728, 51.4368048 ], [ -1.0672691, 51.4367779 ], [ -1.0672642, 51.4367787 ], [ -1.067248, 51.4367812 ], [ -1.0672376, 51.4367555 ], [ -1.0671854, 51.4366252 ] ] ] } },
{ "type": "Feature", "properties": { "id": "way/133295179", "@id": "way/133295179", "addr:housenumber": "1230", "addr:place": null, "addr:postcode": null, "addr:street": "Parkview", "building": "commercial", "building:levels": "3" }, "geometry": { "type": "Polygon", "coordinates": [ [ [ -1.065169, 51.4368822 ], [ -1.0652562, 51.43706 ], [ -1.0653869, 51.4373263 ], [ -1.0654349, 51.4374241 ], [ -1.065729, 51.4373806 ], [ -1.0655461, 51.437008 ], [ -1.065169, 51.4368822 ] ] ] } },
{ "type": "Feature", "properties": { "id": "way/133295181", "@id": "way/133295181", "addr:housenumber": "1320", "addr:place": null, "addr:postcode": null, "addr:street": "Parkview", "building": "commercial", "building:levels": "3" }, "geometry": { "type": "Polygon", "coordinates": [ [ [ -1.0630087, 51.4364017 ], [ -1.0626985, 51.436457 ], [ -1.0628614, 51.436812 ], [ -1.0631717, 51.4367566 ], [ -1.0630087, 51.4364017 ] ] ] } },
{ "type": "Feature", "properties": { "id": "way/133295184", "@id": "way/133295184", "addr:housenumber": "1240", "addr:place": null, "addr:postcode": null, "addr:street": "Parkview", "building": "commercial", "building:levels": "3" }, "geometry": { "type": "Polygon", "coordinates": [ [ [ -1.0647055, 51.4369033 ], [ -1.0644038, 51.436955 ], [ -1.0644849, 51.4371266 ], [ -1.0646697, 51.4370996 ], [ -1.0648073, 51.4371478 ], [ -1.0648827, 51.4372994 ], [ -1.065258, 51.4374228 ], [ -1.0651436, 51.4371866 ], [ -1.0650656, 51.4370256 ], [ -1.0647355, 51.4369135 ], [ -1.0647055, 51.4369033 ] ] ] } },
{ "type": "Feature", "properties": { "id": "way/133295185", "@id": "way/133295185", "addr:housenumber": "1330", "addr:place": null, "addr:postcode": null, "addr:street": "Parkview", "building": "commercial", "building:levels": null }, "geometry": { "type": "Polygon", "coordinates": [ [ [ -1.062534, 51.4364083 ], [ -1.061861, 51.4365293 ], [ -1.0619481, 51.4367177 ], [ -1.0622176, 51.4366693 ], [ -1.0623398, 51.4369334 ], [ -1.0626442, 51.4368787 ], [ -1.0625207, 51.4366118 ], [ -1.0626199, 51.436594 ], [ -1.062534, 51.4364083 ] ] ] } },
{ "type": "Feature", "properties": { "id": "way/133295186", "@id": "way/133295186", "addr:housenumber": "1210", "addr:place": null, "addr:postcode": "RG7 4TY", "addr:street": "Parkview", "building": "commercial", "building:levels": "3" }, "geometry": { "type": "Polygon", "coordinates": [ [ [ -1.0663593, 51.4368182 ], [ -1.0662122, 51.4369781 ], [ -1.0665308, 51.4370956 ], [ -1.0665398, 51.4371164 ], [ -1.0665931, 51.4372402 ], [ -1.0664592, 51.4373777 ], [ -1.0667137, 51.4374764 ], [ -1.0669174, 51.4372778 ], [ -1.0667892, 51.4369792 ], [ -1.0663593, 51.4368182 ] ] ] } },
{ "type": "Feature", "properties": { "id": "way/133295188", "@id": "way/133295188", "addr:housenumber": "1310", "addr:place": null, "addr:postcode": null, "addr:street": "Parkview", "building": "commercial", "building:levels": "3" }, "geometry": { "type": "Polygon", "coordinates": [ [ [ -1.0642563, 51.4366419 ], [ -1.0641724, 51.4364582 ], [ -1.0635608, 51.4365668 ], [ -1.0634855, 51.436402 ], [ -1.0631829, 51.4364557 ], [ -1.0633687, 51.4368625 ], [ -1.0636742, 51.4368082 ], [ -1.0636476, 51.43675 ], [ -1.0642563, 51.4366419 ] ] ] } },
{ "type": "Feature", "properties": { "id": "way/133295910", "@id": "way/133295910", "addr:housenumber": "1", "addr:place": null, "addr:postcode": null, "addr:street": "Waterside Drive", "building": "commercial", "building:levels": "4" }, "geometry": { "type": "Polygon", "coordinates": [ [ [ -1.0691513, 51.4365906 ], [ -1.0691184, 51.4364677 ], [ -1.0690935, 51.4363749 ], [ -1.0686232, 51.4363731 ], [ -1.0686232, 51.4363367 ], [ -1.0685931, 51.4363367 ], [ -1.068561, 51.4363367 ], [ -1.068558, 51.4363737 ], [ -1.068008, 51.4363696 ], [ -1.068008, 51.4364523 ], [ -1.068008, 51.436535 ], [ -1.0685905, 51.4365421 ], [ -1.0688667, 51.4365455 ], [ -1.0688884, 51.4366192 ], [ -1.0691513, 51.4365906 ] ] ] } },
{ "type": "Feature", "properties": { "id": "way/133295913", "@id": "way/133295913", "addr:housenumber": "3", "addr:place": null, "addr:postcode": null, "addr:street": "Waterside Drive", "building": "commercial", "building:levels": "4" }, "geometry": { "type": "Polygon", "coordinates": [ [ [ -1.0691634, 51.436646 ], [ -1.068898, 51.4366743 ], [ -1.0689128, 51.4367281 ], [ -1.0688373, 51.4367362 ], [ -1.0687617, 51.4367442 ], [ -1.0688048, 51.4369011 ], [ -1.0692213, 51.4368567 ], [ -1.0691634, 51.436646 ] ] ] } },
{ "type": "Feature", "properties": { "id": "way/133295914", "@id": "way/133295914", "addr:housenumber": "2", "addr:place": null, "addr:postcode": null, "addr:street": "Waterside Drive", "building": "commercial", "building:levels": "4" }, "geometry": { "type": "Polygon", "coordinates": [ [ [ -1.0687322, 51.4369064 ], [ -1.0686864, 51.4367425 ], [ -1.0686379, 51.4367478 ], [ -1.0682739, 51.4367876 ], [ -1.068257, 51.436738 ], [ -1.0679917, 51.4367665 ], [ -1.0680305, 51.4369097 ], [ -1.0680496, 51.43698 ], [ -1.0687322, 51.4369064 ] ] ] } },
{ "type": "Feature", "properties": { "id": "way/195217870", "@id": "way/195217870", "addr:housenumber": "1430", "addr:place": null, "addr:postcode": null, "addr:street": "Parkview", "building": "commercial", "building:levels": "3" }, "geometry": { "type": "Polygon", "coordinates": [ [ [ -1.0601799, 51.4353077 ], [ -1.0594239, 51.4353783 ], [ -1.0594751, 51.4355914 ], [ -1.0598531, 51.4355561 ], [ -1.0602311, 51.4355209 ], [ -1.0601799, 51.4353077 ] ] ] } },
{ "type": "Feature", "properties": { "id": "way/195217874", "@id": "way/195217874", "addr:housenumber": "1420", "addr:place": null, "addr:postcode": null, "addr:street": "Parkview", "building": "commercial", "building:levels": "4" }, "geometry": { "type": "Polygon", "coordinates": [ [ [ -1.0605895, 51.4357291 ], [ -1.0602515, 51.4357042 ], [ -1.0599135, 51.4356793 ], [ -1.0598766, 51.4358738 ], [ -1.0605526, 51.4359236 ], [ -1.0605895, 51.4357291 ] ] ] } },
{ "type": "Feature", "properties": { "id": "way/195217881", "@id": "way/195217881", "addr:housenumber": "1410", "addr:place": null, "addr:postcode": null, "addr:street": "Parkview", "building": "commercial", "building:levels": "4" }, "geometry": { "type": "Polygon", "coordinates": [ [ [ -1.0608925, 51.436273 ], [ -1.0605504, 51.4361454 ], [ -1.0601466, 51.4359948 ], [ -1.0599976, 51.4361501 ], [ -1.0607436, 51.4364282 ], [ -1.0608925, 51.436273 ] ] ] } }
]
}
